[{"OBJECT_NAME":"GSAT-7","OBJECT_ID":"2013-044B","EPOCH":"2026-03-03T18:25:25.775616","MEAN_MOTION":1.00271395,"ECCENTRICITY":0.0006635,"INCLINATION":0.0199,"RA_OF_ASC_NODE":109.763,"ARG_OF_PERICENTER":183.3412,"MEAN_ANOMALY":218.7646,"EPHEMERIS_TYPE":0,"CLASSIFICATION_TYPE":"U","NORAD_CAT_ID":39234,"ELEMENT_SET_NO":999,"REV_AT_EPOCH":4420,"BSTAR":0,"MEAN_MOTION_DOT":-9.0e-7,"MEAN_MOTION_DDOT":0},{"OBJECT_NAME":"AMOS-4","OBJECT_ID":"2013-045A","EPOCH":"2026-03-03T17:14:44.752128","MEAN_MOTION":1.00272087,"ECCENTRICITY":0.0003307,"INCLINATION":0.0108,"RA_OF_ASC_NODE":167.3019,"ARG_OF_PERICENTER":181.4911,"MEAN_ANOMALY":136.3625,"EPHEMERIS_TYPE":0,"CLASSIFICATION_TYPE":"U","NORAD_CAT_ID":39237,"ELEMENT_SET_NO":999,"REV_AT_EPOCH":4590,"BSTAR":0,"MEAN_MOTION_DOT":-7.0e-8,"MEAN_MOTION_DDOT":0},{"OBJECT_NAME":"ASTRA 2E","OBJECT_ID":"2013-056A","EPOCH":"2026-03-03T19:20:45.475296","MEAN_MOTION":1.00271776,"ECCENTRICITY":0.0002195,"INCLINATION":0.0687,"RA_OF_ASC_NODE":29.4101,"ARG_OF_PERICENTER":306.7927,"MEAN_ANOMALY":144.0147,"EPHEMERIS_TYPE":0,"CLASSIFICATION_TYPE":"U","NORAD_CAT_ID":39285,"ELEMENT_SET_NO":999,"REV_AT_EPOCH":4536,"BSTAR":0,"MEAN_MOTION_DOT":1.37e-6,"MEAN_MOTION_DDOT":0},{"OBJECT_NAME":"FM-6","OBJECT_ID":"2013-058A","EPOCH":"2026-03-03T16:56:51.766944","MEAN_MOTION":1.00269099,"ECCENTRICITY":0.0002888,"INCLINATION":0.0218,"RA_OF_ASC_NODE":129.3351,"ARG_OF_PERICENTER":53.1084,"MEAN_ANOMALY":117.0447,"EPHEMERIS_TYPE":0,"CLASSIFICATION_TYPE":"U","NORAD_CAT_ID":39360,"ELEMENT_SET_NO":999,"REV_AT_EPOCH":4501,"BSTAR":0,"MEAN_MOTION_DOT":-3.0e-7,"MEAN_MOTION_DDOT":0},{"OBJECT_NAME":"RADUGA-1M 3","OBJECT_ID":"2013-062A","EPOCH":"2026-03-03T16:03:50.234688","MEAN_MOTION":1.00272932,"ECCENTRICITY":2.43e-5,"INCLINATION":5.6941,"RA_OF_ASC_NODE":73.6887,"ARG_OF_PERICENTER":266.512,"MEAN_ANOMALY":97.1674,"EPHEMERIS_TYPE":0,"CLASSIFICATION_TYPE":"U","NORAD_CAT_ID":39375,"ELEMENT_SET_NO":999,"REV_AT_EPOCH":4505,"BSTAR":0,"MEAN_MOTION_DOT":1.42e-6,"MEAN_MOTION_DDOT":0},{"OBJECT_NAME":"SES-8","OBJECT_ID":"2013-071A","EPOCH":"2026-03-03T17:07:17.232096","MEAN_MOTION":1.00273111,"ECCENTRICITY":0.0001644,"INCLINATION":0.0597,"RA_OF_ASC_NODE":272.6916,"ARG_OF_PERICENTER":90.6333,"MEAN_ANOMALY":149.9506,"EPHEMERIS_TYPE":0,"CLASSIFICATION_TYPE":"U","NORAD_CAT_ID":39460,"ELEMENT_SET_NO":999,"REV_AT_EPOCH":4338,"BSTAR":0,"MEAN_MOTION_DOT":-2.83e-6,"MEAN_MOTION_DDOT":0},{"OBJECT_NAME":"INMARSAT 5-F1","OBJECT_ID":"2013-073A","EPOCH":"2026-03-03T17:13:26.383872","MEAN_MOTION":1.00269304,"ECCENTRICITY":5.66e-5,"INCLINATION":0.0204,"RA_OF_ASC_NODE":124.3397,"ARG_OF_PERICENTER":218.6172,"MEAN_ANOMALY":139.4234,"EPHEMERIS_TYPE":0,"CLASSIFICATION_TYPE":"U","NORAD_CAT_ID":39476,"ELEMENT_SET_NO":999,"REV_AT_EPOCH":4452,"BSTAR":0,"MEAN_MOTION_DOT":1.5e-7,"MEAN_MOTION_DDOT":0},{"OBJECT_NAME":"TKSAT-1 (TUPAC KATARI)","OBJECT_ID":"2013-075A","EPOCH":"2026-03-03T15:22:23.318688","MEAN_MOTION":1.00273614,"ECCENTRICITY":0.0003091,"INCLINATION":0.0551,"RA_OF_ASC_NODE":302.5821,"ARG_OF_PERICENTER":34.419,"MEAN_ANOMALY":327.7868,"EPHEMERIS_TYPE":0,"CLASSIFICATION_TYPE":"U","NORAD_CAT_ID":39481,"ELEMENT_SET_NO":999,"REV_AT_EPOCH":4454,"BSTAR":0,"MEAN_MOTION_DOT":-2.09e-6,"MEAN_MOTION_DDOT":0},{"OBJECT_NAME":"EXPRESS-AM5","OBJECT_ID":"2013-077A","EPOCH":"2026-03-03T07:53:48.005376","MEAN_MOTION":1.00269311,"ECCENTRICITY":0.00024438,"INCLINATION":0.0228,"RA_OF_ASC_NODE":155.0596,"ARG_OF_PERICENTER":174.5569,"MEAN_ANOMALY":89.974,"EPHEMERIS_TYPE":0,"CLASSIFICATION_TYPE":"U","NORAD_CAT_ID":39487,"ELEMENT_SET_NO":999,"REV_AT_EPOCH":4529,"BSTAR":0,"MEAN_MOTION_DOT":0,"MEAN_MOTION_DDOT":0},{"OBJECT_NAME":"GSAT-14","OBJECT_ID":"2014-001A","EPOCH":"2026-03-03T18:25:25.778208","MEAN_MOTION":1.00271523,"ECCENTRICITY":0.0004633,"INCLINATION":0.043,"RA_OF_ASC_NODE":272.8653,"ARG_OF_PERICENTER":45.3647,"MEAN_ANOMALY":193.6072,"EPHEMERIS_TYPE":0,"CLASSIFICATION_TYPE":"U","NORAD_CAT_ID":39498,"ELEMENT_SET_NO":999,"REV_AT_EPOCH":4432,"BSTAR":0,"MEAN_MOTION_DOT":-9.0e-7,"MEAN_MOTION_DDOT":0},{"OBJECT_NAME":"THAICOM 6","OBJECT_ID":"2014-002A","EPOCH":"2026-03-03T17:52:01.477920","MEAN_MOTION":1.00269009,"ECCENTRICITY":0.0001887,"INCLINATION":0.0262,"RA_OF_ASC_NODE":145.3857,"ARG_OF_PERICENTER":265.3174,"MEAN_ANOMALY":97.3112,"EPHEMERIS_TYPE":0,"CLASSIFICATION_TYPE":"U","NORAD_CAT_ID":39500,"ELEMENT_SET_NO":999,"REV_AT_EPOCH":4440,"BSTAR":0,"MEAN_MOTION_DOT":-1.34e-6,"MEAN_MOTION_DDOT":0},{"OBJECT_NAME":"TDRS 12","OBJECT_ID":"2014-004A","EPOCH":"2026-03-03T19:00:54.878112","MEAN_MOTION":1.00270286,"ECCENTRICITY":0.0003953,"INCLINATION":3.8752,"RA_OF_ASC_NODE":17.229,"ARG_OF_PERICENTER":267.2789,"MEAN_ANOMALY":121.3771,"EPHEMERIS_TYPE":0,"CLASSIFICATION_TYPE":"U","NORAD_CAT_ID":39504,"ELEMENT_SET_NO":999,"REV_AT_EPOCH":4322,"BSTAR":0,"MEAN_MOTION_DOT":-2.81e-6,"MEAN_MOTION_DDOT":0},{"OBJECT_NAME":"ABS-2","OBJECT_ID":"2014-006A","EPOCH":"2026-03-03T18:25:25.793760","MEAN_MOTION":1.00271912,"ECCENTRICITY":0.000305,"INCLINATION":0.0503,"RA_OF_ASC_NODE":274.2202,"ARG_OF_PERICENTER":62.0279,"MEAN_ANOMALY":176.5281,"EPHEMERIS_TYPE":0,"CLASSIFICATION_TYPE":"U","NORAD_CAT_ID":39508,"ELEMENT_SET_NO":999,"REV_AT_EPOCH":4422,"BSTAR":0,"MEAN_MOTION_DOT":-9.9e-7,"MEAN_MOTION_DDOT":0},{"OBJECT_NAME":"ATHENA-FIDUS","OBJECT_ID":"2014-006B","EPOCH":"2026-03-03T19:23:22.723296","MEAN_MOTION":1.0027145,"ECCENTRICITY":0.0001683,"INCLINATION":0.03,"RA_OF_ASC_NODE":111.1273,"ARG_OF_PERICENTER":247.8573,"MEAN_ANOMALY":131.2028,"EPHEMERIS_TYPE":0,"CLASSIFICATION_TYPE":"U","NORAD_CAT_ID":39509,"ELEMENT_SET_NO":999,"REV_AT_EPOCH":4403,"BSTAR":0,"MEAN_MOTION_DOT":1.4e-6,"MEAN_MOTION_DDOT":0},{"OBJECT_NAME":"TURKSAT 4A","OBJECT_ID":"2014-007A","EPOCH":"2026-03-03T15:59:12.291936","MEAN_MOTION":1.00270721,"ECCENTRICITY":0.0004279,"INCLINATION":0.0705,"RA_OF_ASC_NODE":290.929,"ARG_OF_PERICENTER":18.6946,"MEAN_ANOMALY":133.5725,"EPHEMERIS_TYPE":0,"CLASSIFICATION_TYPE":"U","NORAD_CAT_ID":39522,"ELEMENT_SET_NO":999,"REV_AT_EPOCH":4390,"BSTAR":0,"MEAN_MOTION_DOT":1.32e-6,"MEAN_MOTION_DDOT":0},{"OBJECT_NAME":"EXPRESS-AT1","OBJECT_ID":"2014-010A","EPOCH":"2026-03-03T04:10:26.535072","MEAN_MOTION":1.00286556,"ECCENTRICITY":4.628e-5,"INCLINATION":0.0182,"RA_OF_ASC_NODE":234.3603,"ARG_OF_PERICENTER":182.8711,"MEAN_ANOMALY":222.3054,"EPHEMERIS_TYPE":0,"CLASSIFICATION_TYPE":"U","NORAD_CAT_ID":39612,"ELEMENT_SET_NO":999,"REV_AT_EPOCH":4375,"BSTAR":0,"MEAN_MOTION_DOT":6.1e-7,"MEAN_MOTION_DDOT":0},{"OBJECT_NAME":"EXPRESS-AT2","OBJECT_ID":"2014-010B","EPOCH":"2026-03-03T19:52:32.717280","MEAN_MOTION":1.00270363,"ECCENTRICITY":0.0001171,"INCLINATION":0.0217,"RA_OF_ASC_NODE":159.8822,"ARG_OF_PERICENTER":109.665,"MEAN_ANOMALY":330.0401,"EPHEMERIS_TYPE":0,"CLASSIFICATION_TYPE":"U","NORAD_CAT_ID":39613,"ELEMENT_SET_NO":999,"REV_AT_EPOCH":4344,"BSTAR":0,"MEAN_MOTION_DOT":0,"MEAN_MOTION_DDOT":0}]
