GSAT-7                  
1 39234U 13044B   26062.76765944 -.00000090  00000+0  00000+0 0  9995
2 39234   0.0199 109.7630 0006635 183.3412 218.7646  1.00271395 44202
AMOS-4                  
1 39237U 13045A   26062.71857352 -.00000007  00000+0  00000+0 0  9997
2 39237   0.0108 167.3019 0003307 181.4911 136.3625  1.00272087 45901
ASTRA 2E                
1 39285U 13056A   26062.80608189  .00000137  00000+0  00000+0 0  9997
2 39285   0.0687  29.4101 0002195 306.7927 144.0147  1.00271776 45368
FM-6                    
1 39360U 13058A   26062.70615471 -.00000030  00000+0  00000+0 0  9997
2 39360   0.0218 129.3351 0002888  53.1084 117.0447  1.00269099 45015
RADUGA-1M 3             
1 39375U 13062A   26062.66933142  .00000142  00000+0  00000+0 0  9994
2 39375   5.6941  73.6887 0000243 266.5120  97.1674  1.00272932 45058
SES-8                   
1 39460U 13071A   26062.71339389 -.00000283  00000+0  00000+0 0  9995
2 39460   0.0597 272.6916 0001644  90.6333 149.9506  1.00273111 43385
INMARSAT 5-F1           
1 39476U 13073A   26062.71766648  .00000015  00000+0  00000+0 0  9998
2 39476   0.0204 124.3397 0000566 218.6172 139.4234  1.00269304 44526
TKSAT-1 (TUPAC KATARI)  
1 39481U 13075A   26062.64054767 -.00000209  00000+0  00000+0 0  9996
2 39481   0.0551 302.5821 0003091  34.4190 327.7868  1.00273614 44545
EXPRESS-AM5             
1 39487U 13077A   26062.32902784  .00000000  00000+0  00000+0 0  9998
2 39487   0.0228 155.0596 0002443 174.5569  89.9740  1.00269311 45296
GSAT-14                 
1 39498U 14001A   26062.76765947 -.00000090  00000+0  00000+0 0  9994
2 39498   0.0430 272.8653 0004633  45.3647 193.6072  1.00271523 44322
THAICOM 6               
1 39500U 14002A   26062.74446155 -.00000134  00000+0  00000+0 0  9993
2 39500   0.0262 145.3857 0001887 265.3174  97.3112  1.00269009 44406
TDRS 12                 
1 39504U 14004A   26062.79230183 -.00000281  00000+0  00000+0 0  9999
2 39504   3.8752  17.2290 0003953 267.2789 121.3771  1.00270286 43229
ABS-2                   
1 39508U 14006A   26062.76765965 -.00000099  00000+0  00000+0 0  9990
2 39508   0.0503 274.2202 0003050  62.0279 176.5281  1.00271912 44223
ATHENA-FIDUS            
1 39509U 14006B   26062.80790189  .00000140  00000+0  00000+0 0  9998
2 39509   0.0300 111.1273 0001683 247.8573 131.2028  1.00271450 44039
TURKSAT 4A              
1 39522U 14007A   26062.66611449  .00000132  00000+0  00000+0 0  9990
2 39522   0.0705 290.9290 0004279  18.6946 133.5725  1.00270721 43904
EXPRESS-AT1             
1 39612U 14010A   26062.17391823  .00000061  00000+0  00000+0 0  9992
2 39612   0.0182 234.3603 0000462 182.8711 222.3054  1.00286556 43755
EXPRESS-AT2             
1 39613U 14010B   26062.82815645  .00000000  00000+0  00000+0 0  9991
2 39613   0.0217 159.8822 0001171 109.6650 330.0401  1.00270363 43444
